SENTINEL-5P             
1 42969U 17064A   26189.27716962  .00000022  00000+0  31314-4 0  9993
2 42969  98.7928 131.2589 0001092  91.9520 268.1781 14.19522517452553
