{"fetched_at":"2026-07-08T18:00:37.185Z","source":"https://celestrak.org/NORAD/elements/gp.php?NAME=SENTINEL&FORMAT=JSON","constellation":"sentinel-5p","records":[{"OBJECT_NAME":"SENTINEL-5P","OBJECT_ID":"2017-064A","EPOCH":"2026-07-08T06:39:07.455168","CLASSIFICATION_TYPE":"U","MEAN_MOTION":14.19522517,"ECCENTRICITY":0.0001092,"INCLINATION":98.7928,"RA_OF_ASC_NODE":131.2589,"ARG_OF_PERICENTER":91.952,"MEAN_ANOMALY":268.1781,"EPHEMERIS_TYPE":0,"NORAD_CAT_ID":42969,"ELEMENT_SET_NO":999,"REV_AT_EPOCH":45255,"BSTAR":0.000031314,"MEAN_MOTION_DOT":2.2e-7,"MEAN_MOTION_DDOT":0}]}
